     2.100          NAVIGATION                              RINEX VERSION / TYPE
fic2rin                                 09/28/2009 01:07:15 PGM / RUN BY / DATE
                                                            END OF HEADER
26 09  9 27 10  0  0.0  .616214238107D-04 -.113686837722D-11  .000000000000D+00
     .112000000000D+03  .414062500000D+02  .391123434718D-08  .126697688274D+01
     .223517417908D-05  .196812542854D-01  .735186040401D-05  .515361268044D+04
     .360000000000D+05 -.398606061935D-06 -.497068823037D+00  .102445483208D-06
     .992333395560D+00  .259843750000D+03  .102993184873D+01 -.801354808216D-08
    -.160720980388D-10  .100000000000D+01  .155100000000D+04  .000000000000D+00
     .240000000000D+01  .000000000000D+00 -.605359673500D-08  .112000000000D+03
     .288060000000D+05  .400000000000D+01
27 09  9 27 10  0  0.0  .862735323608D-04  .329691829393D-11  .000000000000D+00
     .190000000000D+02  .368750000000D+01  .427303513192D-08 -.208485078005D+01
     .542029738426D-06  .213738552993D-01  .333786010742D-05  .515373715591D+04
     .360000000000D+05  .290572643280D-06  .434424406286D+00  .255182385445D-06
     .975959932191D+00  .316062500000D+03 -.154195469059D+01 -.777353808478D-08
     .169292766009D-09  .100000000000D+01  .155100000000D+04  .000000000000D+00
     .240000000000D+01  .000000000000D+00 -.419095158577D-08  .190000000000D+02
     .288060000000D+05  .400000000000D+01
28 09  9 27 10  0  0.0 -.260854139924D-04  .113686837722D-12  .000000000000D+00
     .850000000000D+02 -.812500000000D+02  .439768318116D-08 -.112707075173D+01
    -.416859984398D-05  .151243878063D-01  .754371285439D-05  .515365511894D+04
     .360000000000D+05  .130385160446D-06  .156993632553D+01  .391155481339D-06
     .967460438131D+00  .237031250000D+03 -.201705111752D+01 -.805819279893D-08
    -.184293390845D-09  .100000000000D+01  .155100000000D+04  .000000000000D+00
     .340000000000D+01  .000000000000D+00 -.102445483208D-07  .850000000000D+02
     .288060000000D+05  .400000000000D+01
29 09  9 27 10  0  0.0  .611264258623D-04  .329691829393D-11  .000000000000D+00
     .170000000000D+02 -.155625000000D+02  .449197282298D-08  .918509171594D+00
    -.940635800362D-06  .305315630976D-02  .891834497452D-05  .515360380745D+04
     .360000000000D+05 -.167638063431D-07  .261293917175D+01 -.800937414169D-07
     .960392998966D+00  .209625000000D+03 -.127467849397D+01 -.795818863336D-08
     .116076263614D-09  .100000000000D+01  .155100000000D+04  .000000000000D+00
     .240000000000D+01  .000000000000D+00 -.884756445885D-08  .170000000000D+02
     .288060000000D+05  .400000000000D+01
30 09  9 27 10  0  0.0  .180270988494D-03  .306954461848D-11  .000000000000D+00
     .121000000000D+03 -.631562500000D+02  .482305804258D-08 -.646625754398D+00
    -.329129397869D-05  .119216376916D-01  .684522092342D-05  .515367024612D+04
     .360000000000D+05 -.139698386192D-06  .149501607456D+01  .800937414169D-07
     .953006770934D+00  .243500000000D+03  .145770737573D+01 -.841785063727D-08
    -.717887045734D-10  .100000000000D+01  .155100000000D+04  .000000000000D+00
     .340000000000D+01  .000000000000D+00 -.791624188423D-08  .121000000000D+03
     .288060000000D+05  .400000000000D+01
31 09  9 27 10  0  0.0 -.638011842966D-04  .568434188608D-12  .000000000000D+00
     .310000000000D+02 -.180312500000D+02  .435661004172D-08  .164478835039D+01
    -.103004276752D-05  .705782638397D-02  .411272048950D-05  .515379565811D+04
     .360000000000D+05  .109896063805D-06  .490327863301D+00 -.949949026108D-07
     .974349734835D+00  .303187500000D+03 -.114144943852D+01 -.802926302246D-08
    -.357157734196D-10  .100000000000D+01  .155100000000D+04  .000000000000D+00
     .240000000000D+01  .000000000000D+00 -.130385160446D-07  .310000000000D+02
     .288060000000D+05  .400000000000D+01
32 09  9 27 10  0  0.0  .188806094229D-03 -.716227077646D-11  .000000000000D+00
     .250000000000D+02  .397812500000D+02  .439018286874D-08  .256649742414D+01
     .181794166565D-05  .132738809334D-01  .768154859543D-05  .515371019554D+04
     .360000000000D+05  .227242708206D-06 -.151775044618D+01  .484287738800D-07
     .962022565358D+00  .230562500000D+03 -.111227691512D+01 -.776139472182D-08
    -.265725354242D-09  .100000000000D+01  .155100000000D+04  .000000000000D+00
     .240000000000D+01  .000000000000D+00 -.325962901115D-08  .250000000000D+02
     .288060000000D+05  .400000000000D+01
24 09  9 27 11  0  0.0  .223895069212D-03  .306954461848D-11  .000000000000D+00
     .168000000000D+03  .190000000000D+02  .491199031840D-08  .640860640018D-01
     .955536961555D-06  .643893692177D-02  .636093318462D-05  .515366210938D+04
     .396000000000D+05  .614672899246D-07 -.260014993960D+01 -.135973095894D-06
     .950319729820D+00  .249250000000D+03 -.616385836224D+00 -.826462996930D-08
    -.500020827875D-11  .100000000000D+01  .155100000000D+04  .000000000000D+00
     .960000000000D+02  .630000000000D+02 -.139698386192D-08  .168000000000D+03
     .288060000000D+05  .600000000000D+01
17 09  9 27  9 59 44.0  .883080065250D-04  .318323145621D-11  .000000000000D+00
     .140000000000D+02 -.183437500000D+02  .439018286874D-08 -.168599276350D+01
    -.836327672005D-06  .468016020022D-02  .921636819839D-05  .515373676109D+04
     .359840000000D+05  .223517417908D-07  .260473455516D+01 -.132247805595D-06
     .960126589881D+00  .204718750000D+03 -.264655410484D+01 -.776425198369D-08
     .208937274505D-09  .100000000000D+01  .155100000000D+04  .000000000000D+00
     .240000000000D+01  .000000000000D+00 -.102445483208D-07  .140000000000D+02
     .337260000000D+05  .400000000000D+01
 8 09  9 27  9 59 44.0 -.222911126912D-03 -.147792889038D-11  .000000000000D+00
     .320000000000D+02 -.192812500000D+02  .411302846700D-08  .116081057121D+01
    -.908970832825D-06  .109847611748D-01  .363960862160D-05  .515362152863D+04
     .359840000000D+05  .763684511185D-07  .554733798729D+00  .104308128357D-06
     .990226679419D+00  .320062500000D+03  .302837142693D+01 -.805854995667D-08
    -.145006040084D-09  .100000000000D+01  .155100000000D+04  .000000000000D+00
     .240000000000D+01  .000000000000D+00 -.372529029846D-08  .320000000000D+02
     .342360000000D+05  .400000000000D+01
 8 09  9 27 11 59 44.0 -.222921837121D-03 -.147792889038D-11  .000000000000D+00
     .460000000000D+02 -.209375000000D+02  .414588697855D-08  .221092175393D+01
    -.938773155212D-06  .109845278785D-01  .439770519733D-05  .515362360191D+04
     .431840000000D+05 -.819563865662D-07  .554674980645D+00  .301748514175D-06
     .990226135213D+00  .312281250000D+03  .302847030557D+01 -.801569102856D-08
     .296440919383D-10  .100000000000D+01  .155100000000D+04  .000000000000D+00
     .240000000000D+01  .000000000000D+00 -.372529029846D-08  .460000000000D+02
     .360060000000D+05  .400000000000D+01
17 09  9 27 11 59 44.0  .883303582668D-04  .318323145621D-11  .000000000000D+00
     .150000000000D+02 -.170937500000D+02  .457626204825D-08 -.635884234514D+00
    -.101700425148D-05  .468014727812D-02  .915862619877D-05  .515373647690D+04
     .431840000000D+05  .128522515297D-06  .260467888235D+01  .111758708954D-06
     .960126806392D+00  .205281250000D+03 -.264652093902D+01 -.797711799327D-08
     .746459664470D-10  .100000000000D+01  .155100000000D+04  .000000000000D+00
     .240000000000D+01  .000000000000D+00 -.102445483208D-07  .150000000000D+02
     .360060000000D+05  .400000000000D+01
 1 09  9 27 12  0  0.0 -.581503845751D-04 -.909494701773D-12  .000000000000D+00
     .760000000000D+02 -.732187500000D+02  .589988861119D-08  .789035943268D+00
    -.374950468540D-05  .378426373936D-02  .672787427902D-05  .515370848846D+04
     .432000000000D+05  .000000000000D+00  .153181124673D+01  .577419996262D-07
     .961765356565D+00  .249812500000D+03  .978250951142D+00 -.814891086342D-08
    -.928610108910D-10  .100000000000D+01  .155100000000D+04  .000000000000D+00
     .240000000000D+01  .630000000000D+02 -.190921127796D-07  .760000000000D+02
     .360060000000D+05  .400000000000D+01
 2 09  9 27 12  0  0.0  .175861641765D-03  .329691829393D-11  .000000000000D+00
     .310000000000D+02  .201875000000D+02  .500020827875D-08 -.170826814603D+01
     .111199915409D-05  .909754028544D-02  .692531466484D-05  .515370854378D+04
     .432000000000D+05 -.931322574615D-07 -.266494217464D+01 -.931322574615D-07
     .941011234746D+00  .235843750000D+03  .289682344869D+01 -.821462788651D-08
     .116433421348D-09  .100000000000D+01  .155100000000D+04  .000000000000D+00
     .240000000000D+01  .000000000000D+00 -.172294676304D-07  .310000000000D+02
     .360060000000D+05  .400000000000D+01
 3 09  9 27 12  0  0.0  .452803913504D-03  .511590769747D-11  .000000000000D+00
     .470000000000D+02 -.205937500000D+02  .515021452711D-08 -.197767284604D+01
    -.106543302536D-05  .124855623581D-01  .862590968609D-05  .515365731812D+04
     .432000000000D+05  .134110450745D-06  .246944195136D+01 -.126659870148D-06
     .926750785382D+00  .193781250000D+03  .945812815689D+00 -.808497962900D-08
     .181078971237D-09  .100000000000D+01  .155100000000D+04  .000000000000D+00
     .240000000000D+01  .000000000000D+00 -.465661287308D-08  .470000000000D+02
     .360060000000D+05  .400000000000D+01
 4 09  9 27 12  0  0.0 -.284645240754D-03 -.173940861714D-10  .000000000000D+00
     .680000000000D+02  .234375000000D+02  .504592446872D-08  .112065848043D+01
     .148452818394D-05  .879644951783D-02  .697001814842D-05  .515380231476D+04
     .432000000000D+05 -.135973095894D-06 -.264672367460D+01  .745058059692D-07
     .940190362154D+00  .236093750000D+03  .520807806833D+00 -.827427322812D-08
    -.145006040084D-09  .100000000000D+01  .155100000000D+04  .000000000000D+00
     .340000000000D+01  .000000000000D+00 -.605359673500D-08  .680000000000D+02
     .360060000000D+05  .400000000000D+01
